GSAT0218 (GALILEO 22)   
1 43058U 17079D   26062.57629942  .00000010  00000+0  00000+0 0  9993
2 43058  55.1051 224.4052 0001913 304.2573  55.6627  1.70474504 51218
GOES 17                 
1 43226U 18022A   26063.35114212 -.00000194  00000+0  00000+0 0  9999
2 43226   0.6680  87.5564 0002253 221.5500 249.8945  1.00270359 29370
GSAT0221 (GALILEO 25)   
1 43564U 18060A   26059.54670036 -.00000105  00000+0  00000+0 0  9995
2 43564  57.2051 344.7173 0005804 306.7848  53.1689  1.70475369 47315
GSAT0222 (GALILEO 26)   
1 43565U 18060B   26055.66007047 -.00000092  00000+0  00000+0 0  9996
2 43565  57.2093 344.8256 0004435 285.4820  74.4799  1.70474973 47292
GSAT0219 (GALILEO 23)   
1 43566U 18060C   26053.53475141 -.00000082  00000+0  00000+0 0  9994
2 43566  57.2094 344.8846 0005774 308.6957  51.2673  1.70475208 47235
GSAT0220 (GALILEO 24)   
1 43567U 18060D   26058.44840234 -.00000102  00000+0  00000+0 0  9992
2 43567  57.2075 344.7516 0005301 308.5821  51.3768  1.70475159 47302
BEIDOU-3 M13            
1 43622U 18072A   26063.29261670 -.00000025  00000+0  00000+0 0  9991
2 43622  56.5327  66.1196 0008901 307.6685  52.2751  1.86230786 50704
BEIDOU-3 M14            
1 43623U 18072B   26061.01026698 -.00000006  00000+0  00000+0 0  9998
2 43623  56.5324  66.1890 0006344 328.5825  31.4150  1.86230813 50657
GPS BIII-1              
1 43873U 18109A   26063.55033128  .00000012  00000+0  00000+0 0  9999
2 43873  55.6151  96.3135 0037913 198.3129 333.9774  2.00556803 52971
METEOR-M2 2             
1 44387U 19038A   26063.85771940  .00000205  00000+0  10849-3 0  9996
2 44387  98.9075  49.6421 0001142  12.7048 347.4159 14.24331898346449
GPS BIII-2              
1 44506U 19056A   26063.18852645 -.00000099  00000+0  00000+0 0  9993
2 44506  55.6848 335.3179 0058028 198.1482 333.1946  2.00568296 47967
BEIDOU-3 M24            
1 44542U 19061A   26062.99913500 -.00000010  00000+0  00000+0 0  9998
2 44542  54.3992 186.2751 0008489  19.7399 340.2521  1.86228942 43837
BEIDOU-3 M23            
1 44543U 19061B   26062.31966779 -.00000018  00000+0  00000+0 0  9999
2 44543  54.3976 186.2660 0005077  14.2210 162.4807  1.86227170 43823
BEIDOU-3 M22            
1 44793U 19078A   26063.37544912 -.00000060  00000+0  00000+0 0  9999
2 44793  54.0307 303.5169 0007273  35.6258 324.4804  1.86231851 42694
BEIDOU-3 M21            
1 44794U 19078B   26062.97806659 -.00000058  00000+0  00000+0 0  9991
2 44794  54.0042 303.4937 0005911  39.9322 320.1697  1.86227541 42693
ELEKTRO-L 3             
1 44903U 19095A   26063.86359218 -.00000106  00000+0  00000+0 0  9999
2 44903   0.0483 313.0557 0001651  16.9726 219.4186  1.00270142 22669
GPS BIII-3              
1 45854U 20041A   26063.05410240 -.00000081  00000+0  00000+0 0  9994
2 45854  56.6057  33.0224 0061380 205.2590 171.1803  2.00560640 41933
